{"type":"FeatureCollection","features":[{"geometry":{"type":"Polygon","coordinates":[[[139.7016611,35.6691816],[139.7007399,35.6687173],[139.7006075,35.6686744],[139.7004564,35.6686324],[139.7001898,35.6685751],[139.6999074,35.6685563],[139.6988411,35.6685207],[139.6977748,35.6684827],[139.6978161,35.6672282],[139.6939972,35.6658081],[139.693817,35.6660581],[139.6937248,35.6661603],[139.6936046,35.6662562],[139.693503,35.6663251],[139.6933937,35.6663802],[139.6929956,35.6665765],[139.6928984,35.6666415],[139.6928205,35.6667078],[139.6926846,35.6668521],[139.6924329,35.6671748],[139.6920092,35.6677355],[139.6918508,35.6679671],[139.6916349,35.6682495],[139.6913676,35.6685963],[139.691226,35.6687844],[139.6911329,35.6689444],[139.6910781,35.6690699],[139.6910527,35.6691401],[139.6909846,35.6693445],[139.6909478,35.6695078],[139.6909321,35.6697975],[139.6909417,35.6699636],[139.6909874,35.6702597],[139.691123,35.6710106],[139.6914994,35.6730074],[139.6916563,35.67394],[139.6928121,35.6735002],[139.6933393,35.6740627],[139.6934752,35.6742077],[139.6940082,35.6747249],[139.6947275,35.674728],[139.6947516,35.6750723],[139.6953685,35.6750853],[139.6955053,35.6744164],[139.6956099,35.6741419],[139.6958728,35.6738042],[139.6982894,35.671671],[139.6999658,35.6711393],[139.7006015,35.6699801],[139.7016611,35.6691816]]]},"type":"Feature","properties":{"contact:tripadvisor":"561514","contact:twitter":"ParksYoyogi","contact:website":"https://www.tokyo-park.or.jp/park/format/index039.html","emergency":"assembly_point","leisure":"park","name":"代々木公園","name:en":"Yoyogi Park","name:es":"Parque Yoyogi","name:fr":"Parc Yoyogi","name:it":"Parco Yoyogi","name:ja-Hira":"よよぎこうえん","name:ja-Latn":"Yoyogi-kōen","name:ko":"요요기 공원","name:ru":"Парк Ёёги","name:zh":"代代木公園","operator":"東京都公園協会","operator:wikidata":"Q11525258","start_date":"1967-10-20","wikidata":"Q1204253","wikimedia_commons":"Category:Yoyogi Park","wikipedia":"ja:代々木公園"}}]}