{
  "type": "FeatureCollection",
  "generator": "overpass-turbo",
  "copyright": "The data included in this document is from www.openstreetmap.org. The data is made available under ODbL.",
  "timestamp": "2026-05-12T22:04:00Z",
  "features": [
    {
      "type": "Feature",
      "properties": {
        "@id": "relation/13235606",
        "addr:city": "東広島市",
        "addr:province": "広島県",
        "amenity": "university",
        "branch": "東広島キャンパス",
        "name": "広島大学",
        "name:de": "Universität Hiroshima",
        "name:en": "Hiroshima University",
        "name:fr": "Université de Hiroshima",
        "name:ja": "広島大学",
        "name:la": "Universitas Hiroshimaensis",
        "name:uk": "Хіросімський університет",
        "name:zh": "廣島大學",
        "operator": "国立大学法人広島大学",
        "type": "multipolygon",
        "wikidata": "Q115220",
        "wikipedia": "ja:広島大学"
      },
      "geometry": {
        "type": "Polygon",
        "coordinates": [
          [
            [
              132.7103578,
              34.3967828
            ],
            [
              132.7105408,
              34.396535
            ],
            [
              132.7106842,
              34.396367
            ],
            [
              132.7108108,
              34.3961748
            ],
            [
              132.7108836,
              34.3959236
            ],
            [
              132.7108909,
              34.3957057
            ],
            [
              132.7108735,
              34.3954613
            ],
            [
              132.7107393,
              34.3952256
            ],
            [
              132.7105249,
              34.3948549
            ],
            [
              132.710265,
              34.3945169
            ],
            [
              132.7101825,
              34.3943448
            ],
            [
              132.710135,
              34.3941779
            ],
            [
              132.7102238,
              34.3941732
            ],
            [
              132.7104162,
              34.3937627
            ],
            [
              132.7110806,
              34.3935066
            ],
            [
              132.711451,
              34.3931865
            ],
            [
              132.7118539,
              34.3930982
            ],
            [
              132.7120083,
              34.39302
            ],
            [
              132.7120287,
              34.3930181
            ],
            [
              132.7122204,
              34.3930051
            ],
            [
              132.7125532,
              34.3929898
            ],
            [
              132.7125812,
              34.3929933
            ],
            [
              132.7129938,
              34.3930444
            ],
            [
              132.7130781,
              34.3930548
            ],
            [
              132.7132562,
              34.3929191
            ],
            [
              132.7134083,
              34.3927095
            ],
            [
              132.7135493,
              34.3926064
            ],
            [
              132.7137195,
              34.3925218
            ],
            [
              132.7141379,
              34.3923977
            ],
            [
              132.7152044,
              34.3920642
            ],
            [
              132.7154676,
              34.3920219
            ],
            [
              132.7158112,
              34.3920299
            ],
            [
              132.7162404,
              34.3921539
            ],
            [
              132.716033,
              34.393089
            ],
            [
              132.71596,
              34.393421
            ],
            [
              132.715857,
              34.393996
            ],
            [
              132.716427,
              34.394238
            ],
            [
              132.716712,
              34.394339
            ],
            [
              132.7171949,
              34.3944647
            ],
            [
              132.7171025,
              34.3948739
            ],
            [
              132.7172599,
              34.3948854
            ],
            [
              132.7174221,
              34.3947068
            ],
            [
              132.7175493,
              34.3945394
            ],
            [
              132.7176931,
              34.3943895
            ],
            [
              132.7178261,
              34.3948001
            ],
            [
              132.7183399,
              34.394942
            ],
            [
              132.7186814,
              34.3938491
            ],
            [
              132.719464,
              34.393855
            ],
            [
              132.719756,
              34.394035
            ],
            [
              132.719864,
              34.39421
            ],
            [
              132.719884,
              34.394362
            ],
            [
              132.719946,
              34.394541
            ],
            [
              132.7201212,
              34.3947769
            ],
            [
              132.72036,
              34.394969
            ],
            [
              132.720469,
              34.395133
            ],
            [
              132.720503,
              34.395347
            ],
            [
              132.720611,
              34.395595
            ],
            [
              132.7214164,
              34.3965933
            ],
            [
              132.7214801,
              34.3966722
            ],
            [
              132.7216111,
              34.3968547
            ],
            [
              132.721687,
              34.3969287
            ],
            [
              132.7222733,
              34.396651
            ],
            [
              132.7228087,
              34.3963364
            ],
            [
              132.7232954,
              34.395987
            ],
            [
              132.7237456,
              34.3958618
            ],
            [
              132.7239306,
              34.3956134
            ],
            [
              132.7242205,
              34.3952604
            ],
            [
              132.7264456,
              34.3960765
            ],
            [
              132.7263554,
              34.3969472
            ],
            [
              132.7266562,
              34.3974381
            ],
            [
              132.7268166,
              34.3976
            ],
            [
              132.7272571,
              34.3977143
            ],
            [
              132.7275403,
              34.3976577
            ],
            [
              132.7280553,
              34.3974169
            ],
            [
              132.7282784,
              34.397346
            ],
            [
              132.7285188,
              34.3973248
            ],
            [
              132.7289737,
              34.397339
            ],
            [
              132.729214,
              34.3974098
            ],
            [
              132.729523,
              34.3975939
            ],
            [
              132.7301628,
              34.3981301
            ],
            [
              132.7299283,
              34.3983585
            ],
            [
              132.729306,
              34.3987214
            ],
            [
              132.7285695,
              34.3987719
            ],
            [
              132.7282476,
              34.3989047
            ],
            [
              132.7296064,
              34.3997395
            ],
            [
              132.7314946,
              34.3997045
            ],
            [
              132.7321813,
              34.3997753
            ],
            [
              132.7322671,
              34.4004658
            ],
            [
              132.7318165,
              34.4011563
            ],
            [
              132.733047,
              34.4009563
            ],
            [
              132.7328792,
              34.4013167
            ],
            [
              132.7329002,
              34.4015538
            ],
            [
              132.732657,
              34.4018922
            ],
            [
              132.7326749,
              34.4024036
            ],
            [
              132.7323101,
              34.4025984
            ],
            [
              132.7325032,
              34.4031737
            ],
            [
              132.732117,
              34.4033862
            ],
            [
              132.7317736,
              34.4038288
            ],
            [
              132.731371,
              34.403822
            ],
            [
              132.7311285,
              34.4038179
            ],
            [
              132.731111,
              34.4038117
            ],
            [
              132.7310252,
              34.403781
            ],
            [
              132.7308893,
              34.4036309
            ],
            [
              132.7308847,
              34.4035019
            ],
            [
              132.7309043,
              34.4032917
            ],
            [
              132.7307176,
              34.4031695
            ],
            [
              132.7304806,
              34.4029639
            ],
            [
              132.7304298,
              34.4029199
            ],
            [
              132.7298472,
              34.4028114
            ],
            [
              132.7294748,
              34.4028272
            ],
            [
              132.7291422,
              34.4028361
            ],
            [
              132.7288832,
              34.4028473
            ],
            [
              132.7286273,
              34.4028405
            ],
            [
              132.7284501,
              34.4027262
            ],
            [
              132.7283081,
              34.4026059
            ],
            [
              132.7280259,
              34.4023173
            ],
            [
              132.7279943,
              34.402285
            ],
            [
              132.7271516,
              34.4022106
            ],
            [
              132.725156,
              34.4026002
            ],
            [
              132.7244816,
              34.4029978
            ],
            [
              132.724119,
              34.4030737
            ],
            [
              132.7239132,
              34.4031885
            ],
            [
              132.7238379,
              34.4032522
            ],
            [
              132.7235814,
              34.4036906
            ],
            [
              132.7233961,
              34.4038934
            ],
            [
              132.7233207,
              34.4039902
            ],
            [
              132.7232286,
              34.4040765
            ],
            [
              132.7232056,
              34.4041241
            ],
            [
              132.7231325,
              34.404256
            ],
            [
              132.7230922,
              34.4043828
            ],
            [
              132.7230635,
              34.4045025
            ],
            [
              132.7230892,
              34.4046541
            ],
            [
              132.7231877,
              34.4048792
            ],
            [
              132.723214,
              34.4050655
            ],
            [
              132.7232467,
              34.4052304
            ],
            [
              132.7232669,
              34.4053478
            ],
            [
              132.7232655,
              34.4054887
            ],
            [
              132.7232592,
              34.4056056
            ],
            [
              132.7232146,
              34.4057154
            ],
            [
              132.7229489,
              34.4064814
            ],
            [
              132.723404,
              34.4066086
            ],
            [
              132.7237597,
              34.4067155
            ],
            [
              132.7242295,
              34.4069221
            ],
            [
              132.724929,
              34.4073363
            ],
            [
              132.725549,
              34.4076685
            ],
            [
              132.7259532,
              34.4077981
            ],
            [
              132.7263146,
              34.4078607
            ],
            [
              132.7277713,
              34.4080433
            ],
            [
              132.7294852,
              34.4083259
            ],
            [
              132.7297019,
              34.4083616
            ],
            [
              132.7302737,
              34.4085486
            ],
            [
              132.7289004,
              34.4099118
            ],
            [
              132.727334,
              34.411151
            ],
            [
              132.7255101,
              34.4106907
            ],
            [
              132.7231068,
              34.4109562
            ],
            [
              132.7211542,
              34.4103366
            ],
            [
              132.7203173,
              34.4108146
            ],
            [
              132.7194783,
              34.4104499
            ],
            [
              132.7193888,
              34.4101291
            ],
            [
              132.7193543,
              34.4095853
            ],
            [
              132.7194111,
              34.4093515
            ],
            [
              132.7195493,
              34.4090712
            ],
            [
              132.7197769,
              34.408533
            ],
            [
              132.7199736,
              34.4079475
            ],
            [
              132.720253,
              34.4067783
            ],
            [
              132.7195449,
              34.4067075
            ],
            [
              132.7193088,
              34.4076989
            ],
            [
              132.7189409,
              34.4086802
            ],
            [
              132.7187089,
              34.4088921
            ],
            [
              132.7182347,
              34.409144
            ],
            [
              132.718101,
              34.409215
            ],
            [
              132.7178319,
              34.4091968
            ],
            [
              132.7177783,
              34.4079952
            ],
            [
              132.7176081,
              34.4078096
            ],
            [
              132.7175071,
              34.4076549
            ],
            [
              132.7174379,
              34.4074817
            ],
            [
              132.7173456,
              34.4072504
            ],
            [
              132.7171812,
              34.4070814
            ],
            [
              132.7169678,
              34.4070219
            ],
            [
              132.716966,
              34.4068443
            ],
            [
              132.716966,
              34.4066828
            ],
            [
              132.7169992,
              34.4065214
            ],
            [
              132.7171008,
              34.4063143
            ],
            [
              132.7172411,
              34.4060828
            ],
            [
              132.7173318,
              34.4057698
            ],
            [
              132.7165991,
              34.4056095
            ],
            [
              132.7163974,
              34.4056093
            ],
            [
              132.7153586,
              34.405443
            ],
            [
              132.7147956,
              34.4053692
            ],
            [
              132.7137119,
              34.4054037
            ],
            [
              132.7127869,
              34.4054779
            ],
            [
              132.7125472,
              34.4054725
            ],
            [
              132.7124249,
              34.4055096
            ],
            [
              132.7120651,
              34.4055344
            ],
            [
              132.7115054,
              34.4055858
            ],
            [
              132.7110619,
              34.405626
            ],
            [
              132.7104611,
              34.4056204
            ],
            [
              132.7100765,
              34.4055722
            ],
            [
              132.7095295,
              34.4054087
            ],
            [
              132.7092272,
              34.4052675
            ],
            [
              132.7089751,
              34.4051303
            ],
            [
              132.7088536,
              34.4046804
            ],
            [
              132.7087122,
              34.4044887
            ],
            [
              132.7085693,
              34.4042865
            ],
            [
              132.7085781,
              34.4038868
            ],
            [
              132.708621,
              34.4036832
            ],
            [
              132.7085727,
              34.4032539
            ],
            [
              132.7088643,
              34.4028967
            ],
            [
              132.7090467,
              34.4026533
            ],
            [
              132.7090555,
              34.4024306
            ],
            [
              132.7089823,
              34.4021487
            ],
            [
              132.7087516,
              34.40183
            ],
            [
              132.7086478,
              34.4017224
            ],
            [
              132.7085049,
              34.4014582
            ],
            [
              132.7085216,
              34.4013334
            ],
            [
              132.7085324,
              34.4008987
            ],
            [
              132.7088665,
              34.3998438
            ],
            [
              132.7091778,
              34.3991199
            ],
            [
              132.7094702,
              34.397813
            ],
            [
              132.7097118,
              34.3974117
            ],
            [
              132.7101207,
              34.3969925
            ],
            [
              132.7102389,
              34.3969117
            ],
            [
              132.7103578,
              34.3967828
            ]
          ]
        ]
      },
      "id": "relation/13235606"
    }
  ]
}